[{"OBJECT_NAME":"ARCTIC WEATHER SATELLITE","OBJECT_ID":"2024-149CD","EPOCH":"2026-03-09T17:59:50.988480","MEAN_MOTION":14.89807185,"ECCENTRICITY":0.00036824,"INCLINATION":97.6882,"RA_OF_ASC_NODE":142.0249,"ARG_OF_PERICENTER":84.5816,"MEAN_ANOMALY":275.5822,"EPHEMERIS_TYPE":0,"CLASSIFICATION_TYPE":"U","NORAD_CAT_ID":60543,"ELEMENT_SET_NO":999,"REV_AT_EPOCH":8449,"BSTAR":-0.00043535777,"MEAN_MOTION_DOT":-4.227e-5,"MEAN_MOTION_DDOT":0},{"OBJECT_NAME":"SL-14 R\/B","OBJECT_ID":"1981-117B","EPOCH":"2026-03-09T17:56:04.213536","MEAN_MOTION":14.87267707,"ECCENTRICITY":0.00186594,"INCLINATION":82.5251,"RA_OF_ASC_NODE":320.3846,"ARG_OF_PERICENTER":104.7501,"MEAN_ANOMALY":255.5785,"EPHEMERIS_TYPE":0,"CLASSIFICATION_TYPE":"U","NORAD_CAT_ID":12988,"ELEMENT_SET_NO":999,"REV_AT_EPOCH":37192,"BSTAR":6.5348474e-5,"MEAN_MOTION_DOT":6.15e-6,"MEAN_MOTION_DDOT":0}]
